{"fetched_at":"2026-07-19T17:31:18.762Z","source":"https://celestrak.org/NORAD/elements/gp.php?GROUP=stations&FORMAT=JSON","constellation":"crewed-vehicles","records":[{"OBJECT_NAME":"SOYUZ-MS 28","OBJECT_ID":"2025-275A","EPOCH":"2026-07-19T04:27:19.257120","CLASSIFICATION_TYPE":"U","MEAN_MOTION":15.49047695,"ECCENTRICITY":0.00067979,"INCLINATION":51.6318,"RA_OF_ASC_NODE":141.7399,"ARG_OF_PERICENTER":313.2287,"MEAN_ANOMALY":46.8133,"EPHEMERIS_TYPE":0,"NORAD_CAT_ID":66664,"ELEMENT_SET_NO":999,"REV_AT_EPOCH":57601,"BSTAR":0.000082168399,"MEAN_MOTION_DOT":0.00004087,"MEAN_MOTION_DDOT":0},{"OBJECT_NAME":"CREW DRAGON 12","OBJECT_ID":"2026-031A","EPOCH":"2026-07-19T04:27:19.257120","CLASSIFICATION_TYPE":"U","MEAN_MOTION":15.49047695,"ECCENTRICITY":0.00067979,"INCLINATION":51.6318,"RA_OF_ASC_NODE":141.7399,"ARG_OF_PERICENTER":313.2287,"MEAN_ANOMALY":46.8133,"EPHEMERIS_TYPE":0,"NORAD_CAT_ID":67796,"ELEMENT_SET_NO":999,"REV_AT_EPOCH":57602,"BSTAR":0.000082168399,"MEAN_MOTION_DOT":0.00004087,"MEAN_MOTION_DDOT":0},{"OBJECT_NAME":"SHENZHOU-23 (SZ-23)","OBJECT_ID":"2026-113A","EPOCH":"2026-07-19T04:31:57.491040","CLASSIFICATION_TYPE":"U","MEAN_MOTION":15.58190352,"ECCENTRICITY":0.00020384,"INCLINATION":41.4684,"RA_OF_ASC_NODE":127.626,"ARG_OF_PERICENTER":305.5531,"MEAN_ANOMALY":54.5117,"EPHEMERIS_TYPE":0,"NORAD_CAT_ID":69180,"ELEMENT_SET_NO":999,"REV_AT_EPOCH":29737,"BSTAR":0.00014395589,"MEAN_MOTION_DOT":0.00010864,"MEAN_MOTION_DDOT":0}]}
