SOYUZ-MS 28             
1 66664U 25275A   26200.18563955  .00004087  00000+0  82168-4 0  9998
2 66664  51.6318 141.7399 0006797 313.2287  46.8133 15.49047695576017
CREW DRAGON 12          
1 67796U 26031A   26200.18563955  .00004087  00000+0  82168-4 0  9996
2 67796  51.6318 141.7399 0006797 313.2287  46.8133 15.49047695576025
SHENZHOU-23 (SZ-23)     
1 69180U 26113A   26200.18885985  .00010864  00000+0  14396-3 0  9993
2 69180  41.4684 127.6260 0002038 305.5531  54.5117 15.58190352297372
